CCSDS_OMM_VERS = 2.0
CREATION_DATE  = 
ORIGINATOR     = 

OBJECT_NAME    = STARLINK-36579
OBJECT_ID      = 2026-014K
CENTER_NAME    = EARTH
REF_FRAME      = TEME
TIME_SYSTEM    = UTC
MEAN_ELEMENT_THEORY = SGP/SGP4

EPOCH          = 2026-02-10T12:00:01.999296
MEAN_MOTION    = 15.75167689
ECCENTRICITY   = .0001514
INCLINATION    = 97.2841
RA_OF_ASC_NODE = 285.0576
ARG_OF_PERICENTER = 80.4000
MEAN_ANOMALY   = 183.5680

EPHEMERIS_TYPE = 0
CLASSIFICATION_TYPE = U
NORAD_CAT_ID   = 67541
ELEMENT_SET_NO = 999
REV_AT_EPOCH   = 431
BSTAR          = -.10232E-3
MEAN_MOTION_DOT = -.1535E-3
MEAN_MOTION_DDOT = 0

CCSDS_OMM_VERS = 2.0
CREATION_DATE  = 
ORIGINATOR     = 

OBJECT_NAME    = STARLINK-35934
OBJECT_ID      = 2026-014L
CENTER_NAME    = EARTH
REF_FRAME      = TEME
TIME_SYSTEM    = UTC
MEAN_ELEMENT_THEORY = SGP/SGP4

EPOCH          = 2026-02-10T10:42:11.371680
MEAN_MOTION    = 15.80926113
ECCENTRICITY   = .0001587
INCLINATION    = 97.2837
RA_OF_ASC_NODE = 285.0178
ARG_OF_PERICENTER = 89.1469
MEAN_ANOMALY   = 270.9981

EPHEMERIS_TYPE = 0
CLASSIFICATION_TYPE = U
NORAD_CAT_ID   = 67542
ELEMENT_SET_NO = 999
REV_AT_EPOCH   = 427
BSTAR          = .10571E-2
MEAN_MOTION_DOT = .208288E-2
MEAN_MOTION_DDOT = 0

CCSDS_OMM_VERS = 2.0
CREATION_DATE  = 
ORIGINATOR     = 

OBJECT_NAME    = STARLINK-36581
OBJECT_ID      = 2026-014M
CENTER_NAME    = EARTH
REF_FRAME      = TEME
TIME_SYSTEM    = UTC
MEAN_ELEMENT_THEORY = SGP/SGP4

EPOCH          = 2026-02-10T10:40:28.963488
MEAN_MOTION    = 15.80851017
ECCENTRICITY   = .0001541
INCLINATION    = 97.2839
RA_OF_ASC_NODE = 285.0185
ARG_OF_PERICENTER = 94.6704
MEAN_ANOMALY   = 265.4740

EPHEMERIS_TYPE = 0
CLASSIFICATION_TYPE = U
NORAD_CAT_ID   = 67543
ELEMENT_SET_NO = 999
REV_AT_EPOCH   = 428
BSTAR          = .49664E-3
MEAN_MOTION_DOT = .96199E-3
MEAN_MOTION_DDOT = 0

CCSDS_OMM_VERS = 2.0
CREATION_DATE  = 
ORIGINATOR     = 

OBJECT_NAME    = STARLINK-36565
OBJECT_ID      = 2026-014N
CENTER_NAME    = EARTH
REF_FRAME      = TEME
TIME_SYSTEM    = UTC
MEAN_ELEMENT_THEORY = SGP/SGP4

EPOCH          = 2026-02-10T10:38:57.598944
MEAN_MOTION    = 15.80862767
ECCENTRICITY   = .0001654
INCLINATION    = 97.2840
RA_OF_ASC_NODE = 285.0204
ARG_OF_PERICENTER = 78.8578
MEAN_ANOMALY   = 281.2876

EPHEMERIS_TYPE = 0
CLASSIFICATION_TYPE = U
NORAD_CAT_ID   = 67544
ELEMENT_SET_NO = 999
REV_AT_EPOCH   = 428
BSTAR          = .75034E-3
MEAN_MOTION_DOT = .146332E-2
MEAN_MOTION_DDOT = 0

CCSDS_OMM_VERS = 2.0
CREATION_DATE  = 
ORIGINATOR     = 

OBJECT_NAME    = STARLINK-36583
OBJECT_ID      = 2026-014P
CENTER_NAME    = EARTH
REF_FRAME      = TEME
TIME_SYSTEM    = UTC
MEAN_ELEMENT_THEORY = SGP/SGP4

EPOCH          = 2026-02-10T10:58:35.164416
MEAN_MOTION    = 15.75217981
ECCENTRICITY   = .0001689
INCLINATION    = 97.2846
RA_OF_ASC_NODE = 285.0006
ARG_OF_PERICENTER = 79.0093
MEAN_ANOMALY   = 281.1362

EPHEMERIS_TYPE = 0
CLASSIFICATION_TYPE = U
NORAD_CAT_ID   = 67545
ELEMENT_SET_NO = 999
REV_AT_EPOCH   = 428
BSTAR          = .88523E-3
MEAN_MOTION_DOT = .134165E-2
MEAN_MOTION_DDOT = 0

CCSDS_OMM_VERS = 2.0
CREATION_DATE  = 
ORIGINATOR     = 

OBJECT_NAME    = STARLINK-36580
OBJECT_ID      = 2026-014Q
CENTER_NAME    = EARTH
REF_FRAME      = TEME
TIME_SYSTEM    = UTC
MEAN_ELEMENT_THEORY = SGP/SGP4

EPOCH          = 2026-02-10T10:35:29.793120
MEAN_MOTION    = 15.80499366
ECCENTRICITY   = .0001623
INCLINATION    = 97.2843
RA_OF_ASC_NODE = 285.0213
ARG_OF_PERICENTER = 77.0328
MEAN_ANOMALY   = 283.1121

EPHEMERIS_TYPE = 0
CLASSIFICATION_TYPE = U
NORAD_CAT_ID   = 67546
ELEMENT_SET_NO = 999
REV_AT_EPOCH   = 428
BSTAR          = -.22864E-2
MEAN_MOTION_DOT = -.412085E-2
MEAN_MOTION_DDOT = 0

CCSDS_OMM_VERS = 2.0
CREATION_DATE  = 
ORIGINATOR     = 

OBJECT_NAME    = STARLINK-36584
OBJECT_ID      = 2026-014R
CENTER_NAME    = EARTH
REF_FRAME      = TEME
TIME_SYSTEM    = UTC
MEAN_ELEMENT_THEORY = SGP/SGP4

EPOCH          = 2026-02-10T10:34:03.659232
MEAN_MOTION    = 15.80890633
ECCENTRICITY   = .0001298
INCLINATION    = 97.2752
RA_OF_ASC_NODE = 285.0177
ARG_OF_PERICENTER = 85.8810
MEAN_ANOMALY   = 274.2606

EPHEMERIS_TYPE = 0
CLASSIFICATION_TYPE = U
NORAD_CAT_ID   = 67547
ELEMENT_SET_NO = 999
REV_AT_EPOCH   = 428
BSTAR          = .11534E-2
MEAN_MOTION_DOT = .227427E-2
MEAN_MOTION_DDOT = 0

CCSDS_OMM_VERS = 2.0
CREATION_DATE  = 
ORIGINATOR     = 

OBJECT_NAME    = STARLINK-36586
OBJECT_ID      = 2026-014S
CENTER_NAME    = EARTH
REF_FRAME      = TEME
TIME_SYSTEM    = UTC
MEAN_ELEMENT_THEORY = SGP/SGP4

EPOCH          = 2026-02-10T10:32:05.612640
MEAN_MOTION    = 15.80849671
ECCENTRICITY   = .000141
INCLINATION    = 97.2845
RA_OF_ASC_NODE = 285.0270
ARG_OF_PERICENTER = 91.0935
MEAN_ANOMALY   = 269.0495

EPHEMERIS_TYPE = 0
CLASSIFICATION_TYPE = U
NORAD_CAT_ID   = 67548
ELEMENT_SET_NO = 999
REV_AT_EPOCH   = 428
BSTAR          = .60823E-3
MEAN_MOTION_DOT = .118135E-2
MEAN_MOTION_DDOT = 0

CCSDS_OMM_VERS = 2.0
CREATION_DATE  = 
ORIGINATOR     = 

OBJECT_NAME    = STARLINK-36564
OBJECT_ID      = 2026-014T
CENTER_NAME    = EARTH
REF_FRAME      = TEME
TIME_SYSTEM    = UTC
MEAN_ELEMENT_THEORY = SGP/SGP4

EPOCH          = 2026-02-10T12:00:01.999296
MEAN_MOTION    = 15.75180974
ECCENTRICITY   = .0001599
INCLINATION    = 97.2843
RA_OF_ASC_NODE = 285.0707
ARG_OF_PERICENTER = 77.9921
MEAN_ANOMALY   = 219.9665

EPHEMERIS_TYPE = 0
CLASSIFICATION_TYPE = U
NORAD_CAT_ID   = 67549
ELEMENT_SET_NO = 999
REV_AT_EPOCH   = 426
BSTAR          = -.31942E-3
MEAN_MOTION_DOT = -.47493E-3
MEAN_MOTION_DDOT = 0

CCSDS_OMM_VERS = 2.0
CREATION_DATE  = 
ORIGINATOR     = 

OBJECT_NAME    = STARLINK-36563
OBJECT_ID      = 2026-014U
CENTER_NAME    = EARTH
REF_FRAME      = TEME
TIME_SYSTEM    = UTC
MEAN_ELEMENT_THEORY = SGP/SGP4

EPOCH          = 2026-02-10T12:00:01.999296
MEAN_MOTION    = 15.75183505
ECCENTRICITY   = .0001577
INCLINATION    = 97.2847
RA_OF_ASC_NODE = 285.0807
ARG_OF_PERICENTER = 102.2173
MEAN_ANOMALY   = 219.7427

EPHEMERIS_TYPE = 0
CLASSIFICATION_TYPE = U
NORAD_CAT_ID   = 67550
ELEMENT_SET_NO = 999
REV_AT_EPOCH   = 431
BSTAR          = -.25387E-3
MEAN_MOTION_DOT = -.37819E-3
MEAN_MOTION_DDOT = 0

CCSDS_OMM_VERS = 2.0
CREATION_DATE  = 
ORIGINATOR     = 

OBJECT_NAME    = STARLINK-36566
OBJECT_ID      = 2026-014V
CENTER_NAME    = EARTH
REF_FRAME      = TEME
TIME_SYSTEM    = UTC
MEAN_ELEMENT_THEORY = SGP/SGP4

EPOCH          = 2026-02-10T12:00:01.999296
MEAN_MOTION    = 15.75165168
ECCENTRICITY   = .0001617
INCLINATION    = 97.2842
RA_OF_ASC_NODE = 285.0855
ARG_OF_PERICENTER = 98.2469
MEAN_ANOMALY   = 235.7103

EPHEMERIS_TYPE = 0
CLASSIFICATION_TYPE = U
NORAD_CAT_ID   = 67551
ELEMENT_SET_NO = 999
REV_AT_EPOCH   = 431
BSTAR          = -.84932E-4
MEAN_MOTION_DOT = -.12766E-3
MEAN_MOTION_DDOT = 0

CCSDS_OMM_VERS = 2.0
CREATION_DATE  = 
ORIGINATOR     = 

OBJECT_NAME    = STARLINK-36567
OBJECT_ID      = 2026-014W
CENTER_NAME    = EARTH
REF_FRAME      = TEME
TIME_SYSTEM    = UTC
MEAN_ELEMENT_THEORY = SGP/SGP4

EPOCH          = 2026-02-10T10:47:24.519840
MEAN_MOTION    = 15.75209458
ECCENTRICITY   = .0001985
INCLINATION    = 97.2848
RA_OF_ASC_NODE = 285.0072
ARG_OF_PERICENTER = 74.3685
MEAN_ANOMALY   = 285.7799

EPHEMERIS_TYPE = 0
CLASSIFICATION_TYPE = U
NORAD_CAT_ID   = 67552
ELEMENT_SET_NO = 999
REV_AT_EPOCH   = 427
BSTAR          = .84784E-3
MEAN_MOTION_DOT = .128361E-2
MEAN_MOTION_DDOT = 0

