STARLINK-36579          
1 67541U 26014K   26041.50002314 -.00015350  00000+0 -10232-3 0  9990
2 67541  97.2841 285.0576 0001514  80.4000 183.5680 15.75167689  4316
STARLINK-35934          
1 67542U 26014L   26041.44596495  .00208288  00000+0  10571-2 0  9999
2 67542  97.2837 285.0178 0001587  89.1469 270.9981 15.80926113  4276
STARLINK-36581          
1 67543U 26014M   26041.44477967  .00096199  00000+0  49664-3 0  9994
2 67543  97.2839 285.0185 0001541  94.6704 265.4740 15.80851017  4283
STARLINK-36565          
1 67544U 26014N   26041.44372221  .00146332  00000+0  75034-3 0  9997
2 67544  97.2840 285.0204 0001654  78.8578 281.2876 15.80862767  4286
STARLINK-36583          
1 67545U 26014P   26041.45735144  .00134165  00000+0  88523-3 0  9994
2 67545  97.2846 285.0006 0001689  79.0093 281.1362 15.75217981  4281
STARLINK-36580          
1 67546U 26014Q   26041.44131705 -.00412085  00000+0 -22864-2 0  9994
2 67546  97.2843 285.0213 0001623  77.0328 283.1121 15.80499366  4286
STARLINK-36584          
1 67547U 26014R   26041.44032013  .00227427  00000+0  11534-2 0  9991
2 67547  97.2752 285.0177 0001298  85.8810 274.2606 15.80890633  4287
STARLINK-36586          
1 67548U 26014S   26041.43895385  .00118135  00000+0  60823-3 0  9991
2 67548  97.2845 285.0270 0001410  91.0935 269.0495 15.80849671  4282
STARLINK-36564          
1 67549U 26014T   26041.50002314 -.00047493  00000+0 -31942-3 0  9992
2 67549  97.2843 285.0707 0001599  77.9921 219.9665 15.75180974  4261
STARLINK-36563          
1 67550U 26014U   26041.50002314 -.00037819  00000+0 -25387-3 0  9991
2 67550  97.2847 285.0807 0001577 102.2173 219.7427 15.75183505  4318
STARLINK-36566          
1 67551U 26014V   26041.50002314 -.00012766  00000+0 -84932-4 0  9998
2 67551  97.2842 285.0855 0001617  98.2469 235.7103 15.75165168  4318
STARLINK-36567          
1 67552U 26014W   26041.44958935  .00128361  00000+0  84784-3 0  9992
2 67552  97.2848 285.0072 0001985  74.3685 285.7799 15.75209458  4271
